[
    {
        "CCSDS_OMM_VERS": "3.0",
        "COMMENT": "GENERATED VIA SPACE-TRACK.ORG API",
        "CREATION_DATE": "2025-04-14T03:05:54",
        "ORIGINATOR": "18 SPCS",
        "OBJECT_NAME": "BEIDOU 12",
        "OBJECT_ID": "2012-018A",
        "CENTER_NAME": "EARTH",
        "REF_FRAME": "TEME",
        "TIME_SYSTEM": "UTC",
        "MEAN_ELEMENT_THEORY": "SGP4",
        "EPOCH": "2025-04-13T02:06:51.297408",
        "MEAN_MOTION": "1.86233840",
        "ECCENTRICITY": "0.00207920",
        "INCLINATION": "56.1174",
        "RA_OF_ASC_NODE": "319.3293",
        "ARG_OF_PERICENTER": "272.5452",
        "MEAN_ANOMALY": "87.2546",
        "EPHEMERIS_TYPE": "0",
        "CLASSIFICATION_TYPE": "U",
        "NORAD_CAT_ID": "38250",
        "ELEMENT_SET_NO": "999",
        "REV_AT_EPOCH": "8793",
        "BSTAR": "0.00000000000000",
        "MEAN_MOTION_DOT": "-0.00000068",
        "MEAN_MOTION_DDOT": "0.0000000000000",
        "SEMIMAJOR_AXIS": "27905.905",
        "PERIOD": "773.221",
        "APOAPSIS": "21585.792",
        "PERIAPSIS": "21469.748",
        "OBJECT_TYPE": "PAYLOAD",
        "RCS_SIZE": "LARGE",
        "COUNTRY_CODE": "PRC",
        "LAUNCH_DATE": "2012-04-29",
        "SITE": "XSC",
        "DECAY_DATE": null,
        "FILE": "4701263",
        "GP_ID": "285535815",
        "TLE_LINE0": "0 BEIDOU 12",
        "TLE_LINE1": "1 38250U 12018A   25103.08809372 -.00000068  00000-0  00000-0 0  9993",
        "TLE_LINE2": "2 38250  56.1174 319.3293 0020792 272.5452  87.2546  1.86233840 87935"
    }
]